[{"OBJECT_NAME":"NANOSATC-BR1","OBJECT_ID":"2014-033Q","EPOCH":"2026-03-09T23:35:03.168384","MEAN_MOTION":15.28136801,"ECCENTRICITY":0.00046435,"INCLINATION":98.0845,"RA_OF_ASC_NODE":92.7804,"ARG_OF_PERICENTER":147.6715,"MEAN_ANOMALY":212.4808,"EPHEMERIS_TYPE":0,"CLASSIFICATION_TYPE":"U","NORAD_CAT_ID":40024,"ELEMENT_SET_NO":999,"REV_AT_EPOCH":63881,"BSTAR":0.00074295057,"MEAN_MOTION_DOT":0.00020336,"MEAN_MOTION_DDOT":0},{"OBJECT_NAME":"STARLINK-31113","OBJECT_ID":"2023-211B","EPOCH":"2026-03-09T01:43:39.497088","MEAN_MOTION":15.27578061,"ECCENTRICITY":0.00010083,"INCLINATION":43.003,"RA_OF_ASC_NODE":88.4648,"ARG_OF_PERICENTER":277.8231,"MEAN_ANOMALY":82.2506,"EPHEMERIS_TYPE":0,"CLASSIFICATION_TYPE":"U","NORAD_CAT_ID":58668,"ELEMENT_SET_NO":999,"REV_AT_EPOCH":12237,"BSTAR":-4.7464801e-5,"MEAN_MOTION_DOT":-1.568e-5,"MEAN_MOTION_DDOT":0}]
